stk.v.4.3 

BEGIN Ephemeris 
 
NumberOfEphemerisPoints		146 
ScenarioEpoch	    2 Jan 2020 12:21:58.131373823 
InterpolationMethod		Lagrange 
InterpolationOrder		5 
CentralBody				Earth 
CoordinateSystem			TEME 
CoordinateSystemEpoch	  2 Jan 2020 12:21:58.131373823 
DistanceUnit			Kilometers 
 
EphemerisTimePosVel 
 
       0.00000000    2498.06874541   -6709.28399494       0.03209651  0.435893266  0.172232823  7.448336888
 END Ephemeris 
